ONEWEB-0008             
1 44059U 19010C   23059.52352934 -.00004431  00000+0 -11627-1 0  9996
2 44059  87.9020 108.6600 0002600  82.8196 277.3230 13.16608009193217
ONEWEB-0008             
1 44059U 19010C   23059.82753479 -.00001851  00000+0 -48770-2 0  9991
2 44059  87.9015 108.5986 0002231  89.9799 270.1587 13.16579891193250
ONEWEB-0008             
1 44059U 19010C   23060.13152722 -.00001925  00000+0 -50706-2 0  9995
2 44059  87.9020 108.5365 0002384  85.9270 274.2134 13.16579215193316
ONEWEB-0008             
1 44059U 19010C   23060.81548441  .00000270  00000+0  67127-3 0  9993
2 44059  87.8997 108.4047 0002385  94.6720 265.4684 13.16596397193392
ONEWEB-0008             
1 44059U 19010C   23060.89147939  .00000664  00000+0  17023-2 0  9994
2 44059  87.9013 108.3870 0002313  90.4600 269.6796 13.16597332193397
ONEWEB-0008             
1 44059U 19010C   23061.57545328  .00002361  00000+0  61410-2 0  9999
2 44059  87.9017 108.2504 0002696  87.9871 272.1569 13.16590447193486
ONEWEB-0008             
1 44059U 19010C   23062.18342739  .00002426  00000+0  63106-2 0  9994
2 44059  87.9015 108.1292 0002222  89.4076 270.7309 13.16591383193561
ONEWEB-0008             
1 44059U 19010C   23062.86739456  .00000050  00000+0  96528-4 0  9992
2 44059  87.9011 107.9927 0002270  88.9569 271.1822 13.16603357193653
